NORAD_CAT_ID,OBJECT_NAME,OBJECT_TYPE,EPOCH,MEAN_MOTION,ECCENTRICITY,INCLINATION,RA_OF_ASC_NODE,ARG_OF_PERICENTER,MEAN_ANOMALY,BSTAR,MEAN_MOTION_DOT,MEAN_MOTION_DDOT,TLE_LINE0,TLE_LINE1,TLE_LINE2,SEMIMAJOR_AXIS,PERIOD,APOGEE,PERIGEE,DECAYED
53835.0,STARLINK-4783,PAYLOAD,2023-09-22 17:46:40,15.08868121,0.0001232,53.2193,19.4475,78.2146,281.8984,0.0018121,0.00028691,0.0,0 STARLINK-4783,1 53835U 22114T   23265.74074407  .00028691  00000-0  18121-2 0  9996,2 53835  53.2193  19.4475 0001232  78.2146 281.8984 15.08868121 56589,6917.794,95.436,540.512,538.807,0.0
53835.0,STARLINK-4783,PAYLOAD,2023-09-22 19:22:03,15.08869435,0.0001191,53.2184,19.1487,89.2533,270.8596,0.0016665,0.00026355,0.0,0 STARLINK-4783,1 53835U 22114T   23265.80698240  .00026355  00000-0  16665-2 0  9996,2 53835  53.2184  19.1487 0001191  89.2533 270.8596 15.08869435 57133,6917.79,95.436,540.479,538.832,0.0
53835.0,STARLINK-4783,PAYLOAD,2023-09-23 00:08:12,15.08844296,0.0001045,53.2185,18.2563,98.7018,261.4093,0.00029754,4.451e-05,0.0,0 STARLINK-4783,1 53835U 22114T   23266.00570568  .00004451  00000-0  29754-3 0  9998,2 53835  53.2185  18.2563 0001045  98.7018 261.4093 15.08844296 56629,6917.867,95.437,540.455,539.009,0.0
53835.0,STARLINK-4783,PAYLOAD,2023-09-23 12:51:18,15.08855455,0.0001132,53.2181,15.8781,86.9901,273.122,0.0015445,0.00024389,0.0,0 STARLINK-4783,1 53835U 22114T   23266.53562518  .00024389  00000-0  15445-2 0  9995,2 53835  53.2181  15.8781 0001132  86.9901 273.1220 15.08855455 57247,6917.833,95.437,540.481,538.915,0.0
53835.0,STARLINK-4783,PAYLOAD,2023-09-23 17:37:27,15.08864556,0.0001102,53.2181,14.9864,91.3696,268.7423,0.0019542,0.00030971,0.0,0 STARLINK-4783,1 53835U 22114T   23266.73434249  .00030971  00000-0  19542-2 0  9992,2 53835  53.2181  14.9864 0001102  91.3696 268.7423 15.08864556 56737,6917.805,95.436,540.433,538.908,0.0
53835.0,STARLINK-4783,PAYLOAD,2023-09-24 11:06:42,15.0884879,0.0001341,53.2174,11.7152,99.8773,260.237,0.0013811,0.00021766,0.0,0 STARLINK-4783,1 53835U 22114T   23267.46298626  .00021766  00000-0  13811-2 0  9995,2 53835  53.2174  11.7152 0001341  99.8773 260.2370 15.08848790 56840,6917.854,95.437,540.646,538.791,0.0
53835.0,STARLINK-4783,PAYLOAD,2023-09-24 12:42:05,15.08846884,0.000125,53.2174,11.4182,87.934,272.1796,0.0012884,0.0002028,0.0,0 STARLINK-4783,1 53835U 22114T   23267.52922663  .00020280  00000-0  12884-2 0  9996,2 53835  53.2174  11.4182 0001250  87.9340 272.1796 15.08846884 57394,6917.859,95.437,540.589,538.86,0.0
53835.0,STARLINK-4783,PAYLOAD,2023-09-24 15:52:51,15.08850482,0.0001292,53.2174,10.8236,87.5827,272.5313,0.0012649,0.00019906,0.0,0 STARLINK-4783,1 53835U 22114T   23267.66170596  .00019906  00000-0  12649-2 0  9993,2 53835  53.2174  10.8236 0001292  87.5827 272.5313 15.08850482 57410,6917.848,95.437,540.607,538.82,0.0
53835.0,STARLINK-4783,PAYLOAD,2023-09-25 12:32:52,15.08854944,0.0001346,53.2172,6.9588,94.6528,265.4618,0.0016832,0.00026613,0.0,0 STARLINK-4783,1 53835U 22114T   23268.52282925  .00026613  00000-0  16832-2 0  9990,2 53835  53.2172   6.9588 0001346  94.6528 265.4618 15.08854944 57541,6917.835,95.437,540.631,538.769,0.0
53835.0,STARLINK-4783,PAYLOAD,2023-09-25 18:54:24,15.08876387,0.0001446,53.218,5.7671,94.5917,265.524,0.0018696,0.00029622,0.0,0 STARLINK-4783,1 53835U 22114T   23268.78778306  .00029622  00000-0  18696-2 0  9994,2 53835  53.2180   5.7671 0001446  94.5917 265.5240 15.08876387 57044,6917.769,95.435,540.634,538.634,0.0
53835.0,STARLINK-4783,PAYLOAD,2023-09-26 10:48:16,15.08830861,0.0001201,53.2169,2.795,115.7227,244.389,0.00091606,0.00014318,0.0,0 STARLINK-4783,1 53835U 22114T   23269.45019220  .00014318  00000-0  91606-3 0  9991,2 53835  53.2169   2.7950 0001201 115.7227 244.3890 15.08830861 57141,6917.908,95.438,540.604,538.942,0.0
53835.0,STARLINK-4783,PAYLOAD,2023-09-26 13:59:03,15.08841642,0.0001237,53.217,2.2012,83.9901,276.1232,0.0019951,0.00031608,0.0,0 STARLINK-4783,1 53835U 22114T   23269.58267385  .00031608  00000-0  19951-2 0  9995,2 53835  53.2170   2.2012 0001237  83.9901 276.1232 15.08841642 57705,6917.875,95.437,540.596,538.885,0.0
53835.0,STARLINK-4783,PAYLOAD,2023-09-27 05:52:54,15.08841711,0.0001373,53.2176,359.2247,103.1728,256.9417,0.0021907,0.00034751,0.0,0 STARLINK-4783,1 53835U 22114T   23270.24507674  .00034751  00000-0  21907-2 0  9994,2 53835  53.2176 359.2247 0001373 103.1728 256.9417 15.08841711 57268,6917.875,95.437,540.69,538.79,0.0
53835.0,STARLINK-4783,PAYLOAD,2023-09-27 12:14:26,15.08853752,0.0001457,53.2166,358.0387,77.1678,282.9477,0.0009192,0.00014377,0.0,0 STARLINK-4783,1 53835U 22114T   23270.51003367  .00014377  00000-0  91920-3 0  9999,2 53835  53.2166 358.0387 0001457  77.1678 282.9477 15.08853752 57843,6917.838,95.437,540.711,538.695,0.0
53835.0,STARLINK-4783,PAYLOAD,2023-09-28 12:05:14,15.08840962,0.0001518,53.2171,353.5773,78.8007,281.3155,0.00023647,3.478e-05,0.0,0 STARLINK-4783,1 53835U 22114T   23271.50363607  .00003478  00000-0  23647-3 0  9996,2 53835  53.2171 353.5773 0001518  78.8007 281.3155 15.08840962 57452,6917.877,95.437,540.793,538.692,0.0
53835.0,STARLINK-4783,PAYLOAD,2023-09-29 11:56:00,15.08853357,0.0001541,53.2176,349.1168,77.0573,283.0591,0.00031182,4.68e-05,0.0,0 STARLINK-4783,1 53835U 22114T   23272.49723219  .00004680  00000-0  31182-3 0  9993,2 53835  53.2176 349.1168 0001541  77.0573 283.0591 15.08853357 58143,6917.84,95.437,540.771,538.639,0.0
53835.0,STARLINK-4783,PAYLOAD,2023-09-30 11:46:47,15.08857574,0.000147,53.2178,344.6583,81.4867,278.6292,0.00038022,5.771e-05,0.0,0 STARLINK-4783,1 53835U 22114T   23273.49082773  .00005771  00000-0  38022-3 0  9999,2 53835  53.2178 344.6583 0001470  81.4867 278.6292 15.08857574 57751,6917.827,95.436,540.709,538.675,0.0
53835.0,STARLINK-4783,PAYLOAD,2023-10-01 05:16:02,15.088425,0.0001598,53.2185,341.3861,99.3617,260.7556,0.00055265,8.519e-05,0.0,0 STARLINK-4783,1 53835U 22114T   23274.21946783  .00008519  00000-0  55265-3 0  9991,2 53835  53.2185 341.3861 0001598  99.3617 260.7556 15.08842500 57864,6917.873,95.437,540.843,538.632,0.0
53835.0,STARLINK-4783,PAYLOAD,2023-10-01 11:37:34,15.0884838,0.0001743,53.2185,340.1966,105.1504,254.9681,0.00071512,0.00011114,0.0,0 STARLINK-4783,1 53835U 22114T   23274.48442721  .00011114  00000-0  71512-3 0  9991,2 53835  53.2185 340.1966 0001743 105.1504 254.9681 15.08848380 58441,6917.855,95.437,540.926,538.514,0.0
53835.0,STARLINK-4783,PAYLOAD,2023-10-01 21:09:53,15.08835735,0.0001917,53.2177,338.4124,83.7108,276.4103,0.0001801,2.579e-05,0.0,0 STARLINK-4783,1 53835U 22114T   23274.88187207  .00002579  00000-0  18010-3 0  9999,2 53835  53.2177 338.4124 0001917  83.7108 276.4103 15.08835735 58507,6917.893,95.438,541.085,538.432,0.0
53835.0,STARLINK-4783,PAYLOAD,2023-10-02 11:28:22,15.08823452,0.0001779,53.2183,335.7404,97.3295,262.79,-0.00018608,-3.247e-05,0.0,0 STARLINK-4783,1 53835U 22114T   23275.47804120 -.00003247  00000-0 -18608-3 0  9993,2 53835  53.2183 335.7404 0001779  97.3295 262.7900 15.08823452 58055,6917.931,95.439,541.027,538.565,0.0
53835.0,STARLINK-4783,PAYLOAD,2023-10-02 21:00:41,15.08832738,0.0001532,53.2169,333.9517,85.2396,274.8771,0.00036056,5.454e-05,0.0,0 STARLINK-4783,1 53835U 22114T   23275.87548290  .00005454  00000-0  36056-3 0  9997,2 53835  53.2169 333.9517 0001532  85.2396 274.8771 15.08832738 58652,6917.903,95.438,540.827,538.708,0.0
53835.0,STARLINK-4783,PAYLOAD,2023-10-03 03:22:14,15.08841566,0.0001524,53.217,332.7618,80.3964,279.72,0.0010819,0.00016973,0.0,0 STARLINK-4783,1 53835U 22114T   23276.14044472  .00016973  00000-0  10819-2 0  9997,2 53835  53.2170 332.7618 0001524  80.3964 279.7200 15.08841566 58156,6917.876,95.437,540.795,538.686,0.0
53835.0,STARLINK-4783,PAYLOAD,2023-10-03 11:19:09,15.08862604,0.0001517,53.2164,331.276,82.6344,277.482,0.0014802,0.00023362,0.0,0 STARLINK-4783,1 53835U 22114T   23276.47164042  .00023362  00000-0  14802-2 0  9995,2 53835  53.2164 331.2760 0001517  82.6344 277.4820 15.08862604 58744,6917.811,95.436,540.726,538.627,0.0
53835.0,STARLINK-4783,PAYLOAD,2023-10-03 16:05:18,15.08874474,0.0001567,53.2157,330.3828,77.6967,282.4201,0.0015794,0.00024961,0.0,0 STARLINK-4783,1 53835U 22114T   23276.67035624  .00024961  00000-0  15794-2 0  9997,2 53835  53.2157 330.3828 0001567  77.6967 282.4201 15.08874474 58232,6917.775,95.435,540.724,538.556,0.0
53835.0,STARLINK-4783,PAYLOAD,2023-10-04 09:34:33,15.08847805,0.0001599,53.2154,327.1115,94.3413,265.7762,0.0012841,0.00020212,0.0,0 STARLINK-4783,1 53835U 22114T   23277.39899988  .00020212  00000-0  12841-2 0  9993,2 53835  53.2154 327.1115 0001599  94.3413 265.7762 15.08847805 58345,6917.857,95.437,540.828,538.615,0.0
53835.0,STARLINK-4783,PAYLOAD,2023-10-04 11:09:56,15.08851982,0.0001554,53.2156,326.8143,92.1119,268.0051,0.0016576,0.000262,0.0,0 STARLINK-4783,1 53835U 22114T   23277.46523944  .00026200  00000-0  16576-2 0  9999,2 53835  53.2156 326.8143 0001554  92.1119 268.0051 15.08851982 58892,6917.844,95.437,540.784,538.634,0.0
53835.0,STARLINK-4783,PAYLOAD,2023-10-04 15:56:05,15.08859604,0.0001549,53.215,325.9216,91.1256,268.9914,0.0015562,0.00024579,0.0,0 STARLINK-4783,1 53835U 22114T   23277.66395732  .00024579  00000-0  15562-2 0  9994,2 53835  53.2150 325.9216 0001549  91.1256 268.9914 15.08859604 58922,6917.82,95.436,540.757,538.614,0.0
53835.0,STARLINK-4783,PAYLOAD,2023-10-05 03:03:48,15.08838734,0.0001459,53.2159,323.8401,78.196,281.9195,0.00094545,0.0001479,0.0,0 STARLINK-4783,1 53835U 22114T   23278.12764437  .00014790  00000-0  94545-3 0  9991,2 53835  53.2159 323.8401 0001459  78.1960 281.9195 15.08838734 58456,6917.884,95.438,540.759,538.74,0.0
53835.0,STARLINK-4783,PAYLOAD,2023-10-05 09:25:20,15.08853776,0.0001528,53.2159,322.6505,77.4946,282.6217,0.0021758,0.00034523,0.0,0 STARLINK-4783,1 53835U 22114T   23278.39260338  .00034523  00000-0  21758-2 0  9992,2 53835  53.2159 322.6505 0001528  77.4946 282.6217 15.08853776 59032,6917.838,95.437,540.76,538.646,0.0
